<?xml version="1.0" encoding="UTF-8"?>
<kml xmlns="http://www.opengis.net/kml/2.2">
  <Document>
    <name>災情案例</name>
    <description>災情通報資料</description>
    <Style id="style_a95dffc8bbdec0d851384b63d379c116">
      <IconStyle>
        <Icon>
          <href>http://maps.google.com/mapfiles/kml/paddle/grn-circle.png</href>
        </Icon>
      </IconStyle>
    </Style>
    <Style id="style_22b152e4bc1f7ec939480f54ef51faf2">
      <IconStyle>
        <Icon>
          <href>http://maps.google.com/mapfiles/kml/paddle/red-circle.png</href>
        </Icon>
      </IconStyle>
    </Style>
    <Style id="style_6f9f752d6452ef1467f5de8109a850f0">
      <IconStyle>
        <Icon>
          <href>http://maps.google.com/mapfiles/kml/paddle/orange-circle.png</href>
        </Icon>
      </IconStyle>
    </Style>
    <Style id="style_7a1f6ee89955c4f22c3eb3b17b81cc74">
      <IconStyle>
        <Icon>
          <href>http://maps.google.com/mapfiles/kml/paddle/blu-circle.png</href>
        </Icon>
      </IconStyle>
    </Style>
    <Style id="style_ce8a48c95b79d72e57e13d116756f871">
      <IconStyle>
        <Icon>
          <href>http://maps.google.com/mapfiles/kml/paddle/ylw-circle.png</href>
        </Icon>
      </IconStyle>
    </Style>
    <Style id="style_0fb7e241a82e93d42b45d4611e7af211">
      <IconStyle>
        <Icon>
          <href>http://maps.google.com/mapfiles/kml/paddle/wht-circle.png</href>
        </Icon>
      </IconStyle>
    </Style>
    <Style id="style_f6d6f10f1d09a16b9b76a5b21971836f">
      <IconStyle>
        <Icon>
          <href>http://maps.google.com/mapfiles/kml/paddle/pink-circle.png</href>
        </Icon>
      </IconStyle>
    </Style>
    <Style id="style_b84f511a3355f78f784ea0f203d6517f">
      <IconStyle>
        <Icon>
          <href>http://maps.google.com/mapfiles/kml/paddle/ylw-circle.png</href>
        </Icon>
      </IconStyle>
    </Style>
    <Style id="style_692b66e4835fe98bf2e2a7ccb517d747">
      <IconStyle>
        <Icon>
          <href>http://maps.google.com/mapfiles/kml/paddle/ylw-stars.png</href>
        </Icon>
      </IconStyle>
    </Style>
    <Style id="style_add8988f0a39649a388faeb7a001bec1">
      <IconStyle>
        <Icon>
          <href>http://maps.google.com/mapfiles/kml/paddle/purple-circle.png</href>
        </Icon>
      </IconStyle>
    </Style>
    <Style id="style_serious">
      <IconStyle>
        <scale>1.2</scale>
        <Icon>
          <href>http://maps.google.com/mapfiles/kml/paddle/red-stars.png</href>
        </Icon>
      </IconStyle>
    </Style>
    <Placemark>
      <name>其他災情</name>
      <visibility>1</visibility>
      <TimeStamp>
        <when>2026/9/26 下午 07:12:09</when>
      </TimeStamp>
      <description><![CDATA[
    <b>案件編號：</b>162026064892290<br/><b>災情類別：</b>其他災情（其他）<br/><b>發生時間：</b>2026/9/26 下午 07:12:09<br/><b>行政區：</b>苗栗縣 卓蘭鎮<br/><b>發生地點：</b>苗栗縣卓蘭鎮苗豐里<br/><b>災情描述：</b>災情查報<br/><b>通報類別：</b>LINE災情通報<br/><b>上傳單位：</b>劉士銘<br/><b>處理狀態：</b>未指派<br/><b>交通障礙：</b>否<br/><b>重大災情：</b>否<br/><b>人員受傷：</b>0，<b>死亡：</b>0，<b>受困：</b>0，<b>失蹤：</b>0，<b>收容：</b>0
  ]]></description>
      <styleUrl>#style_0fb7e241a82e93d42b45d4611e7af211</styleUrl>
      <ExtendedData>
        <Data name="case_id">
          <displayName>案件編號</displayName>
          <value>162026064892290</value>
        </Data>
        <Data name="case_dt">
          <displayName>發生時間</displayName>
          <value>2026/9/26 下午 07:12:09</value>
        </Data>
        <Data name="disaster_type">
          <displayName>災情類別</displayName>
          <value>其他災情</value>
        </Data>
        <Data name="disaster_sub_type">
          <displayName>災情類別細項</displayName>
          <value>其他</value>
        </Data>
        <Data name="county">
          <displayName>縣市</displayName>
          <value>苗栗縣</value>
        </Data>
        <Data name="town">
          <displayName>鄉鎮市區</displayName>
          <value>卓蘭鎮</value>
        </Data>
        <Data name="location">
          <displayName>發生地點</displayName>
          <value>苗栗縣卓蘭鎮苗豐里</value>
        </Data>
        <Data name="case_description">
          <displayName>災情描述</displayName>
          <value>災情查報</value>
        </Data>
        <Data name="case_type">
          <displayName>通報類別</displayName>
          <value>LINE災情通報</value>
        </Data>
        <Data name="person_id">
          <displayName>上傳單位</displayName>
          <value>劉士銘</value>
        </Data>
        <Data name="status">
          <displayName>處理狀態</displayName>
          <value>未指派</value>
        </Data>
        <Data name="is_traffic">
          <displayName>交通障礙</displayName>
          <value>否</value>
        </Data>
        <Data name="is_serious">
          <displayName>重大災情</displayName>
          <value>否</value>
        </Data>
        <Data name="injured_no">
          <displayName>人員受傷</displayName>
          <value>0</value>
        </Data>
        <Data name="death_no">
          <displayName>人員死亡</displayName>
          <value>0</value>
        </Data>
        <Data name="trapped_no">
          <displayName>人員受困</displayName>
          <value>0</value>
        </Data>
        <Data name="missing_no">
          <displayName>人員失蹤</displayName>
          <value>0</value>
        </Data>
        <Data name="shelter_no">
          <displayName>人員收容</displayName>
          <value>0</value>
        </Data>
      </ExtendedData>
      <Point>
        <coordinates>120.794538,24.319192,0</coordinates>
      </Point>
    </Placemark>
    <Placemark>
      <name>路樹災情</name>
      <visibility>1</visibility>
      <TimeStamp>
        <when>2026/9/26 下午 12:13:58</when>
      </TimeStamp>
      <description><![CDATA[
    <b>案件編號：</b>162026064890897<br/><b>災情類別：</b>路樹災情（路樹倒塌）<br/><b>發生時間：</b>2026/9/26 下午 12:13:58<br/><b>行政區：</b>苗栗縣 苗栗市<br/><b>發生地點：</b>苗栗縣苗栗市玉華里8鄰玉清路217號<br/><b>災情描述：</b>測試<br/><b>通報類別：</b>LINE災情通報<br/><b>上傳單位：</b>魏錦文<br/><b>處理狀態：</b>未指派<br/><b>交通障礙：</b>否<br/><b>重大災情：</b>否<br/><b>人員受傷：</b>0，<b>死亡：</b>0，<b>受困：</b>0，<b>失蹤：</b>0，<b>收容：</b>0
  ]]></description>
      <styleUrl>#style_a95dffc8bbdec0d851384b63d379c116</styleUrl>
      <ExtendedData>
        <Data name="case_id">
          <displayName>案件編號</displayName>
          <value>162026064890897</value>
        </Data>
        <Data name="case_dt">
          <displayName>發生時間</displayName>
          <value>2026/9/26 下午 12:13:58</value>
        </Data>
        <Data name="disaster_type">
          <displayName>災情類別</displayName>
          <value>路樹災情</value>
        </Data>
        <Data name="disaster_sub_type">
          <displayName>災情類別細項</displayName>
          <value>路樹倒塌</value>
        </Data>
        <Data name="county">
          <displayName>縣市</displayName>
          <value>苗栗縣</value>
        </Data>
        <Data name="town">
          <displayName>鄉鎮市區</displayName>
          <value>苗栗市</value>
        </Data>
        <Data name="location">
          <displayName>發生地點</displayName>
          <value>苗栗縣苗栗市玉華里8鄰玉清路217號</value>
        </Data>
        <Data name="case_description">
          <displayName>災情描述</displayName>
          <value>測試</value>
        </Data>
        <Data name="case_type">
          <displayName>通報類別</displayName>
          <value>LINE災情通報</value>
        </Data>
        <Data name="person_id">
          <displayName>上傳單位</displayName>
          <value>魏錦文</value>
        </Data>
        <Data name="status">
          <displayName>處理狀態</displayName>
          <value>未指派</value>
        </Data>
        <Data name="is_traffic">
          <displayName>交通障礙</displayName>
          <value>否</value>
        </Data>
        <Data name="is_serious">
          <displayName>重大災情</displayName>
          <value>否</value>
        </Data>
        <Data name="injured_no">
          <displayName>人員受傷</displayName>
          <value>0</value>
        </Data>
        <Data name="death_no">
          <displayName>人員死亡</displayName>
          <value>0</value>
        </Data>
        <Data name="trapped_no">
          <displayName>人員受困</displayName>
          <value>0</value>
        </Data>
        <Data name="missing_no">
          <displayName>人員失蹤</displayName>
          <value>0</value>
        </Data>
        <Data name="shelter_no">
          <displayName>人員收容</displayName>
          <value>0</value>
        </Data>
      </ExtendedData>
      <Point>
        <coordinates>120.8323996,24.5627511,0</coordinates>
      </Point>
    </Placemark>
    <Placemark>
      <name>道路、隧道災情</name>
      <visibility>1</visibility>
      <TimeStamp>
        <when>2026/9/26 上午 09:48:12</when>
      </TimeStamp>
      <description><![CDATA[
    <b>案件編號：</b>162026064890392<br/><b>災情類別：</b>道路、隧道災情（邊坡坍方）<br/><b>發生時間：</b>2026/9/26 上午 09:48:12<br/><b>行政區：</b>苗栗縣 三灣鄉<br/><b>發生地點：</b>苗栗縣三灣鄉內灣村9鄰小份美10號<br/><b>災情描述：</b>邊坡坍塌<br/><b>通報類別：</b>LINE災情通報<br/><b>上傳單位：</b>邱文國<br/><b>處理狀態：</b>未指派<br/><b>交通障礙：</b>否<br/><b>重大災情：</b>否<br/><b>人員受傷：</b>0，<b>死亡：</b>0，<b>受困：</b>0，<b>失蹤：</b>0，<b>收容：</b>0
  ]]></description>
      <styleUrl>#style_0fb7e241a82e93d42b45d4611e7af211</styleUrl>
      <ExtendedData>
        <Data name="case_id">
          <displayName>案件編號</displayName>
          <value>162026064890392</value>
        </Data>
        <Data name="case_dt">
          <displayName>發生時間</displayName>
          <value>2026/9/26 上午 09:48:12</value>
        </Data>
        <Data name="disaster_type">
          <displayName>災情類別</displayName>
          <value>道路、隧道災情</value>
        </Data>
        <Data name="disaster_sub_type">
          <displayName>災情類別細項</displayName>
          <value>邊坡坍方</value>
        </Data>
        <Data name="county">
          <displayName>縣市</displayName>
          <value>苗栗縣</value>
        </Data>
        <Data name="town">
          <displayName>鄉鎮市區</displayName>
          <value>三灣鄉</value>
        </Data>
        <Data name="location">
          <displayName>發生地點</displayName>
          <value>苗栗縣三灣鄉內灣村9鄰小份美10號</value>
        </Data>
        <Data name="case_description">
          <displayName>災情描述</displayName>
          <value>邊坡坍塌</value>
        </Data>
        <Data name="case_type">
          <displayName>通報類別</displayName>
          <value>LINE災情通報</value>
        </Data>
        <Data name="person_id">
          <displayName>上傳單位</displayName>
          <value>邱文國</value>
        </Data>
        <Data name="status">
          <displayName>處理狀態</displayName>
          <value>未指派</value>
        </Data>
        <Data name="is_traffic">
          <displayName>交通障礙</displayName>
          <value>否</value>
        </Data>
        <Data name="is_serious">
          <displayName>重大災情</displayName>
          <value>否</value>
        </Data>
        <Data name="injured_no">
          <displayName>人員受傷</displayName>
          <value>0</value>
        </Data>
        <Data name="death_no">
          <displayName>人員死亡</displayName>
          <value>0</value>
        </Data>
        <Data name="trapped_no">
          <displayName>人員受困</displayName>
          <value>0</value>
        </Data>
        <Data name="missing_no">
          <displayName>人員失蹤</displayName>
          <value>0</value>
        </Data>
        <Data name="shelter_no">
          <displayName>人員收容</displayName>
          <value>0</value>
        </Data>
      </ExtendedData>
      <Point>
        <coordinates>120.951271,24.673593,0</coordinates>
      </Point>
    </Placemark>
    <Placemark>
      <name>路樹災情</name>
      <visibility>1</visibility>
      <TimeStamp>
        <when>2026/9/24 下午 11:58:44</when>
      </TimeStamp>
      <description><![CDATA[
    <b>案件編號：</b>162026064885065<br/><b>災情類別：</b>路樹災情（路樹傾斜）<br/><b>發生時間：</b>2026/9/24 下午 11:58:44<br/><b>行政區：</b>苗栗縣 銅鑼鄉<br/><b>發生地點：</b>苗栗縣銅鑼鄉盛隆村<br/><b>災情描述：</b>祝我高票當選<br/><b>通報類別：</b>LINE災情通報<br/><b>上傳單位：</b>黎宥霆<br/><b>處理狀態：</b>未指派<br/><b>交通障礙：</b>否<br/><b>重大災情：</b>否<br/><b>人員受傷：</b>0，<b>死亡：</b>0，<b>受困：</b>0，<b>失蹤：</b>0，<b>收容：</b>0
  ]]></description>
      <styleUrl>#style_a95dffc8bbdec0d851384b63d379c116</styleUrl>
      <ExtendedData>
        <Data name="case_id">
          <displayName>案件編號</displayName>
          <value>162026064885065</value>
        </Data>
        <Data name="case_dt">
          <displayName>發生時間</displayName>
          <value>2026/9/24 下午 11:58:44</value>
        </Data>
        <Data name="disaster_type">
          <displayName>災情類別</displayName>
          <value>路樹災情</value>
        </Data>
        <Data name="disaster_sub_type">
          <displayName>災情類別細項</displayName>
          <value>路樹傾斜</value>
        </Data>
        <Data name="county">
          <displayName>縣市</displayName>
          <value>苗栗縣</value>
        </Data>
        <Data name="town">
          <displayName>鄉鎮市區</displayName>
          <value>銅鑼鄉</value>
        </Data>
        <Data name="location">
          <displayName>發生地點</displayName>
          <value>苗栗縣銅鑼鄉盛隆村</value>
        </Data>
        <Data name="case_description">
          <displayName>災情描述</displayName>
          <value>祝我高票當選</value>
        </Data>
        <Data name="case_type">
          <displayName>通報類別</displayName>
          <value>LINE災情通報</value>
        </Data>
        <Data name="person_id">
          <displayName>上傳單位</displayName>
          <value>黎宥霆</value>
        </Data>
        <Data name="status">
          <displayName>處理狀態</displayName>
          <value>未指派</value>
        </Data>
        <Data name="is_traffic">
          <displayName>交通障礙</displayName>
          <value>否</value>
        </Data>
        <Data name="is_serious">
          <displayName>重大災情</displayName>
          <value>否</value>
        </Data>
        <Data name="injured_no">
          <displayName>人員受傷</displayName>
          <value>0</value>
        </Data>
        <Data name="death_no">
          <displayName>人員死亡</displayName>
          <value>0</value>
        </Data>
        <Data name="trapped_no">
          <displayName>人員受困</displayName>
          <value>0</value>
        </Data>
        <Data name="missing_no">
          <displayName>人員失蹤</displayName>
          <value>0</value>
        </Data>
        <Data name="shelter_no">
          <displayName>人員收容</displayName>
          <value>0</value>
        </Data>
      </ExtendedData>
      <Point>
        <coordinates>120.81308,24.449217,0</coordinates>
      </Point>
    </Placemark>
    <Placemark>
      <name>路樹災情</name>
      <visibility>1</visibility>
      <TimeStamp>
        <when>2026/9/24 下午 07:57:21</when>
      </TimeStamp>
      <description><![CDATA[
    <b>案件編號：</b>162026064884288<br/><b>災情類別：</b>路樹災情（路樹傾斜）<br/><b>發生時間：</b>2026/9/24 下午 07:57:21<br/><b>行政區：</b>苗栗縣 泰安鄉<br/><b>發生地點：</b>苗栗縣泰安鄉八卦村4鄰八卦力68之15號<br/><b>災情描述：</b>路樹倒塌<br/><b>通報類別：</b>LINE災情通報<br/><b>上傳單位：</b>田志軍<br/><b>處理狀態：</b>未指派<br/><b>交通障礙：</b>否<br/><b>重大災情：</b>否<br/><b>人員受傷：</b>0，<b>死亡：</b>0，<b>受困：</b>0，<b>失蹤：</b>0，<b>收容：</b>0
  ]]></description>
      <styleUrl>#style_a95dffc8bbdec0d851384b63d379c116</styleUrl>
      <ExtendedData>
        <Data name="case_id">
          <displayName>案件編號</displayName>
          <value>162026064884288</value>
        </Data>
        <Data name="case_dt">
          <displayName>發生時間</displayName>
          <value>2026/9/24 下午 07:57:21</value>
        </Data>
        <Data name="disaster_type">
          <displayName>災情類別</displayName>
          <value>路樹災情</value>
        </Data>
        <Data name="disaster_sub_type">
          <displayName>災情類別細項</displayName>
          <value>路樹傾斜</value>
        </Data>
        <Data name="county">
          <displayName>縣市</displayName>
          <value>苗栗縣</value>
        </Data>
        <Data name="town">
          <displayName>鄉鎮市區</displayName>
          <value>泰安鄉</value>
        </Data>
        <Data name="location">
          <displayName>發生地點</displayName>
          <value>苗栗縣泰安鄉八卦村4鄰八卦力68之15號</value>
        </Data>
        <Data name="case_description">
          <displayName>災情描述</displayName>
          <value>路樹倒塌</value>
        </Data>
        <Data name="case_type">
          <displayName>通報類別</displayName>
          <value>LINE災情通報</value>
        </Data>
        <Data name="person_id">
          <displayName>上傳單位</displayName>
          <value>田志軍</value>
        </Data>
        <Data name="status">
          <displayName>處理狀態</displayName>
          <value>未指派</value>
        </Data>
        <Data name="is_traffic">
          <displayName>交通障礙</displayName>
          <value>否</value>
        </Data>
        <Data name="is_serious">
          <displayName>重大災情</displayName>
          <value>否</value>
        </Data>
        <Data name="injured_no">
          <displayName>人員受傷</displayName>
          <value>0</value>
        </Data>
        <Data name="death_no">
          <displayName>人員死亡</displayName>
          <value>0</value>
        </Data>
        <Data name="trapped_no">
          <displayName>人員受困</displayName>
          <value>0</value>
        </Data>
        <Data name="missing_no">
          <displayName>人員失蹤</displayName>
          <value>0</value>
        </Data>
        <Data name="shelter_no">
          <displayName>人員收容</displayName>
          <value>0</value>
        </Data>
      </ExtendedData>
      <Point>
        <coordinates>120.946352,24.495211,0</coordinates>
      </Point>
    </Placemark>
    <Placemark>
      <name>路樹災情</name>
      <visibility>1</visibility>
      <TimeStamp>
        <when>2026/9/24 下午 06:20:22</when>
      </TimeStamp>
      <description><![CDATA[
    <b>案件編號：</b>162026064883916<br/><b>災情類別：</b>路樹災情（路樹傾斜）<br/><b>發生時間：</b>2026/9/24 下午 06:20:22<br/><b>行政區：</b>苗栗縣 後龍鎮<br/><b>發生地點：</b>苗栗縣後龍鎮<br/><b>災情描述：</b>路樹倒塌<br/><b>通報類別：</b>LINE災情通報<br/><b>上傳單位：</b>王琮平<br/><b>處理狀態：</b>未指派<br/><b>交通障礙：</b>是<br/><b>重大災情：</b>否<br/><b>人員受傷：</b>0，<b>死亡：</b>0，<b>受困：</b>0，<b>失蹤：</b>0，<b>收容：</b>0
  ]]></description>
      <styleUrl>#style_a95dffc8bbdec0d851384b63d379c116</styleUrl>
      <ExtendedData>
        <Data name="case_id">
          <displayName>案件編號</displayName>
          <value>162026064883916</value>
        </Data>
        <Data name="case_dt">
          <displayName>發生時間</displayName>
          <value>2026/9/24 下午 06:20:22</value>
        </Data>
        <Data name="disaster_type">
          <displayName>災情類別</displayName>
          <value>路樹災情</value>
        </Data>
        <Data name="disaster_sub_type">
          <displayName>災情類別細項</displayName>
          <value>路樹傾斜</value>
        </Data>
        <Data name="county">
          <displayName>縣市</displayName>
          <value>苗栗縣</value>
        </Data>
        <Data name="town">
          <displayName>鄉鎮市區</displayName>
          <value>後龍鎮</value>
        </Data>
        <Data name="location">
          <displayName>發生地點</displayName>
          <value>苗栗縣後龍鎮</value>
        </Data>
        <Data name="case_description">
          <displayName>災情描述</displayName>
          <value>路樹倒塌</value>
        </Data>
        <Data name="case_type">
          <displayName>通報類別</displayName>
          <value>LINE災情通報</value>
        </Data>
        <Data name="person_id">
          <displayName>上傳單位</displayName>
          <value>王琮平</value>
        </Data>
        <Data name="status">
          <displayName>處理狀態</displayName>
          <value>未指派</value>
        </Data>
        <Data name="is_traffic">
          <displayName>交通障礙</displayName>
          <value>是</value>
        </Data>
        <Data name="is_serious">
          <displayName>重大災情</displayName>
          <value>否</value>
        </Data>
        <Data name="injured_no">
          <displayName>人員受傷</displayName>
          <value>0</value>
        </Data>
        <Data name="death_no">
          <displayName>人員死亡</displayName>
          <value>0</value>
        </Data>
        <Data name="trapped_no">
          <displayName>人員受困</displayName>
          <value>0</value>
        </Data>
        <Data name="missing_no">
          <displayName>人員失蹤</displayName>
          <value>0</value>
        </Data>
        <Data name="shelter_no">
          <displayName>人員收容</displayName>
          <value>0</value>
        </Data>
      </ExtendedData>
      <Point>
        <coordinates>120.781205,24.6156265,0</coordinates>
      </Point>
    </Placemark>
    <Placemark>
      <name>其他災情</name>
      <visibility>1</visibility>
      <TimeStamp>
        <when>2026/9/24 下午 03:47:58</when>
      </TimeStamp>
      <description><![CDATA[
    <b>案件編號：</b>162026064883332<br/><b>災情類別：</b>其他災情（其他）<br/><b>發生時間：</b>2026/9/24 下午 03:47:58<br/><b>行政區：</b>苗栗縣 公館鄉<br/><b>發生地點：</b>苗栗縣公館鄉仁安村100號<br/><b>災情描述：</b>災情查報測試<br/><b>通報類別：</b>LINE災情通報<br/><b>上傳單位：</b>賴信宏<br/><b>處理狀態：</b>未指派<br/><b>交通障礙：</b>否<br/><b>重大災情：</b>否<br/><b>人員受傷：</b>0，<b>死亡：</b>0，<b>受困：</b>0，<b>失蹤：</b>0，<b>收容：</b>0
  ]]></description>
      <styleUrl>#style_0fb7e241a82e93d42b45d4611e7af211</styleUrl>
      <ExtendedData>
        <Data name="case_id">
          <displayName>案件編號</displayName>
          <value>162026064883332</value>
        </Data>
        <Data name="case_dt">
          <displayName>發生時間</displayName>
          <value>2026/9/24 下午 03:47:58</value>
        </Data>
        <Data name="disaster_type">
          <displayName>災情類別</displayName>
          <value>其他災情</value>
        </Data>
        <Data name="disaster_sub_type">
          <displayName>災情類別細項</displayName>
          <value>其他</value>
        </Data>
        <Data name="county">
          <displayName>縣市</displayName>
          <value>苗栗縣</value>
        </Data>
        <Data name="town">
          <displayName>鄉鎮市區</displayName>
          <value>公館鄉</value>
        </Data>
        <Data name="location">
          <displayName>發生地點</displayName>
          <value>苗栗縣公館鄉仁安村100號</value>
        </Data>
        <Data name="case_description">
          <displayName>災情描述</displayName>
          <value>災情查報測試</value>
        </Data>
        <Data name="case_type">
          <displayName>通報類別</displayName>
          <value>LINE災情通報</value>
        </Data>
        <Data name="person_id">
          <displayName>上傳單位</displayName>
          <value>賴信宏</value>
        </Data>
        <Data name="status">
          <displayName>處理狀態</displayName>
          <value>未指派</value>
        </Data>
        <Data name="is_traffic">
          <displayName>交通障礙</displayName>
          <value>否</value>
        </Data>
        <Data name="is_serious">
          <displayName>重大災情</displayName>
          <value>否</value>
        </Data>
        <Data name="injured_no">
          <displayName>人員受傷</displayName>
          <value>0</value>
        </Data>
        <Data name="death_no">
          <displayName>人員死亡</displayName>
          <value>0</value>
        </Data>
        <Data name="trapped_no">
          <displayName>人員受困</displayName>
          <value>0</value>
        </Data>
        <Data name="missing_no">
          <displayName>人員失蹤</displayName>
          <value>0</value>
        </Data>
        <Data name="shelter_no">
          <displayName>人員收容</displayName>
          <value>0</value>
        </Data>
      </ExtendedData>
      <Point>
        <coordinates>120.837396,24.523854,0</coordinates>
      </Point>
    </Placemark>
    <Placemark>
      <name>路樹災情</name>
      <visibility>1</visibility>
      <TimeStamp>
        <when>2026/9/24 下午 03:11:24</when>
      </TimeStamp>
      <description><![CDATA[
    <b>案件編號：</b>162026064883219<br/><b>災情類別：</b>路樹災情（路樹傾斜）<br/><b>發生時間：</b>2026/9/24 下午 03:11:24<br/><b>行政區：</b>苗栗縣 西湖鄉<br/><b>發生地點：</b>苗栗縣西湖鄉<br/><b>災情描述：</b>災情查報測試<br/><b>通報類別：</b>LINE災情通報<br/><b>上傳單位：</b>孫乾芳<br/><b>處理狀態：</b>未指派<br/><b>交通障礙：</b>否<br/><b>重大災情：</b>否<br/><b>人員受傷：</b>0，<b>死亡：</b>0，<b>受困：</b>0，<b>失蹤：</b>0，<b>收容：</b>0
  ]]></description>
      <styleUrl>#style_a95dffc8bbdec0d851384b63d379c116</styleUrl>
      <ExtendedData>
        <Data name="case_id">
          <displayName>案件編號</displayName>
          <value>162026064883219</value>
        </Data>
        <Data name="case_dt">
          <displayName>發生時間</displayName>
          <value>2026/9/24 下午 03:11:24</value>
        </Data>
        <Data name="disaster_type">
          <displayName>災情類別</displayName>
          <value>路樹災情</value>
        </Data>
        <Data name="disaster_sub_type">
          <displayName>災情類別細項</displayName>
          <value>路樹傾斜</value>
        </Data>
        <Data name="county">
          <displayName>縣市</displayName>
          <value>苗栗縣</value>
        </Data>
        <Data name="town">
          <displayName>鄉鎮市區</displayName>
          <value>西湖鄉</value>
        </Data>
        <Data name="location">
          <displayName>發生地點</displayName>
          <value>苗栗縣西湖鄉</value>
        </Data>
        <Data name="case_description">
          <displayName>災情描述</displayName>
          <value>災情查報測試</value>
        </Data>
        <Data name="case_type">
          <displayName>通報類別</displayName>
          <value>LINE災情通報</value>
        </Data>
        <Data name="person_id">
          <displayName>上傳單位</displayName>
          <value>孫乾芳</value>
        </Data>
        <Data name="status">
          <displayName>處理狀態</displayName>
          <value>未指派</value>
        </Data>
        <Data name="is_traffic">
          <displayName>交通障礙</displayName>
          <value>否</value>
        </Data>
        <Data name="is_serious">
          <displayName>重大災情</displayName>
          <value>否</value>
        </Data>
        <Data name="injured_no">
          <displayName>人員受傷</displayName>
          <value>0</value>
        </Data>
        <Data name="death_no">
          <displayName>人員死亡</displayName>
          <value>0</value>
        </Data>
        <Data name="trapped_no">
          <displayName>人員受困</displayName>
          <value>0</value>
        </Data>
        <Data name="missing_no">
          <displayName>人員失蹤</displayName>
          <value>0</value>
        </Data>
        <Data name="shelter_no">
          <displayName>人員收容</displayName>
          <value>0</value>
        </Data>
      </ExtendedData>
      <Point>
        <coordinates>120.7614144,24.5415322,0</coordinates>
      </Point>
    </Placemark>
    <Placemark>
      <name>路樹災情</name>
      <visibility>1</visibility>
      <TimeStamp>
        <when>2026/9/24 下午 02:51:04</when>
      </TimeStamp>
      <description><![CDATA[
    <b>案件編號：</b>162026064883125<br/><b>災情類別：</b>路樹災情（路樹傾斜）<br/><b>發生時間：</b>2026/9/24 下午 02:51:04<br/><b>行政區：</b>苗栗縣 頭屋鄉<br/><b>發生地點：</b>苗栗縣頭屋鄉<br/><b>災情描述：</b>測試<br/><b>通報類別：</b>LINE災情通報<br/><b>上傳單位：</b>巫劍民<br/><b>處理狀態：</b>未指派<br/><b>交通障礙：</b>是<br/><b>重大災情：</b>否<br/><b>人員受傷：</b>0，<b>死亡：</b>0，<b>受困：</b>0，<b>失蹤：</b>0，<b>收容：</b>0
  ]]></description>
      <styleUrl>#style_a95dffc8bbdec0d851384b63d379c116</styleUrl>
      <ExtendedData>
        <Data name="case_id">
          <displayName>案件編號</displayName>
          <value>162026064883125</value>
        </Data>
        <Data name="case_dt">
          <displayName>發生時間</displayName>
          <value>2026/9/24 下午 02:51:04</value>
        </Data>
        <Data name="disaster_type">
          <displayName>災情類別</displayName>
          <value>路樹災情</value>
        </Data>
        <Data name="disaster_sub_type">
          <displayName>災情類別細項</displayName>
          <value>路樹傾斜</value>
        </Data>
        <Data name="county">
          <displayName>縣市</displayName>
          <value>苗栗縣</value>
        </Data>
        <Data name="town">
          <displayName>鄉鎮市區</displayName>
          <value>頭屋鄉</value>
        </Data>
        <Data name="location">
          <displayName>發生地點</displayName>
          <value>苗栗縣頭屋鄉</value>
        </Data>
        <Data name="case_description">
          <displayName>災情描述</displayName>
          <value>測試</value>
        </Data>
        <Data name="case_type">
          <displayName>通報類別</displayName>
          <value>LINE災情通報</value>
        </Data>
        <Data name="person_id">
          <displayName>上傳單位</displayName>
          <value>巫劍民</value>
        </Data>
        <Data name="status">
          <displayName>處理狀態</displayName>
          <value>未指派</value>
        </Data>
        <Data name="is_traffic">
          <displayName>交通障礙</displayName>
          <value>是</value>
        </Data>
        <Data name="is_serious">
          <displayName>重大災情</displayName>
          <value>否</value>
        </Data>
        <Data name="injured_no">
          <displayName>人員受傷</displayName>
          <value>0</value>
        </Data>
        <Data name="death_no">
          <displayName>人員死亡</displayName>
          <value>0</value>
        </Data>
        <Data name="trapped_no">
          <displayName>人員受困</displayName>
          <value>0</value>
        </Data>
        <Data name="missing_no">
          <displayName>人員失蹤</displayName>
          <value>0</value>
        </Data>
        <Data name="shelter_no">
          <displayName>人員收容</displayName>
          <value>0</value>
        </Data>
      </ExtendedData>
      <Point>
        <coordinates>120.8826631,24.573455,0</coordinates>
      </Point>
    </Placemark>
    <Placemark>
      <name>民生、基礎設施災情</name>
      <visibility>1</visibility>
      <TimeStamp>
        <when>2026/9/24 上午 10:58:00</when>
      </TimeStamp>
      <description><![CDATA[
    <b>案件編號：</b>042026064882563<br/><b>災情類別：</b>民生、基礎設施災情（其他）<br/><b>發生時間：</b>2026/9/24 上午 10:58:00<br/><b>行政區：</b>嘉義市 西區<br/><b>發生地點：</b>(演練)嘉義市西區湖美一街與健康七路<br/><b>災情描述：</b>(演練)發生氣爆爆炸<br/><b>通報類別：</b>災情查報<br/><b>上傳單位：</b>民眾A<br/><b>處理狀態：</b>已處理<br/><b>交通障礙：</b>否<br/><b>重大災情：</b>否<br/><b>人員受傷：</b>21，<b>死亡：</b>1，<b>受困：</b>0，<b>失蹤：</b>0，<b>收容：</b>0
  ]]></description>
      <styleUrl>#style_22b152e4bc1f7ec939480f54ef51faf2</styleUrl>
      <ExtendedData>
        <Data name="case_id">
          <displayName>案件編號</displayName>
          <value>042026064882563</value>
        </Data>
        <Data name="case_dt">
          <displayName>發生時間</displayName>
          <value>2026/9/24 上午 10:58:00</value>
        </Data>
        <Data name="disaster_type">
          <displayName>災情類別</displayName>
          <value>民生、基礎設施災情</value>
        </Data>
        <Data name="disaster_sub_type">
          <displayName>災情類別細項</displayName>
          <value>其他</value>
        </Data>
        <Data name="county">
          <displayName>縣市</displayName>
          <value>嘉義市</value>
        </Data>
        <Data name="town">
          <displayName>鄉鎮市區</displayName>
          <value>西區</value>
        </Data>
        <Data name="location">
          <displayName>發生地點</displayName>
          <value>(演練)嘉義市西區湖美一街與健康七路</value>
        </Data>
        <Data name="case_description">
          <displayName>災情描述</displayName>
          <value>(演練)發生氣爆爆炸</value>
        </Data>
        <Data name="case_type">
          <displayName>通報類別</displayName>
          <value>災情查報</value>
        </Data>
        <Data name="person_id">
          <displayName>上傳單位</displayName>
          <value>民眾A</value>
        </Data>
        <Data name="status">
          <displayName>處理狀態</displayName>
          <value>已處理</value>
        </Data>
        <Data name="is_traffic">
          <displayName>交通障礙</displayName>
          <value>否</value>
        </Data>
        <Data name="is_serious">
          <displayName>重大災情</displayName>
          <value>否</value>
        </Data>
        <Data name="injured_no">
          <displayName>人員受傷</displayName>
          <value>21</value>
        </Data>
        <Data name="death_no">
          <displayName>人員死亡</displayName>
          <value>1</value>
        </Data>
        <Data name="trapped_no">
          <displayName>人員受困</displayName>
          <value>0</value>
        </Data>
        <Data name="missing_no">
          <displayName>人員失蹤</displayName>
          <value>0</value>
        </Data>
        <Data name="shelter_no">
          <displayName>人員收容</displayName>
          <value>0</value>
        </Data>
      </ExtendedData>
      <Point>
        <coordinates>120.439738,23.44442,0</coordinates>
      </Point>
    </Placemark>
    <Placemark>
      <name>路樹災情</name>
      <visibility>1</visibility>
      <TimeStamp>
        <when>2026/9/24 上午 10:44:45</when>
      </TimeStamp>
      <description><![CDATA[
    <b>案件編號：</b>162026064882469<br/><b>災情類別：</b>路樹災情（路樹傾斜）<br/><b>發生時間：</b>2026/9/24 上午 10:44:45<br/><b>行政區：</b>苗栗縣 三義鄉<br/><b>發生地點：</b>苗栗縣三義鄉廣盛村<br/><b>災情描述：</b>路樹傾斜<br/><b>通報類別：</b>LINE災情通報<br/><b>上傳單位：</b>吳尚左<br/><b>處理狀態：</b>未指派<br/><b>交通障礙：</b>否<br/><b>重大災情：</b>否<br/><b>人員受傷：</b>0，<b>死亡：</b>0，<b>受困：</b>0，<b>失蹤：</b>0，<b>收容：</b>0
  ]]></description>
      <styleUrl>#style_a95dffc8bbdec0d851384b63d379c116</styleUrl>
      <ExtendedData>
        <Data name="case_id">
          <displayName>案件編號</displayName>
          <value>162026064882469</value>
        </Data>
        <Data name="case_dt">
          <displayName>發生時間</displayName>
          <value>2026/9/24 上午 10:44:45</value>
        </Data>
        <Data name="disaster_type">
          <displayName>災情類別</displayName>
          <value>路樹災情</value>
        </Data>
        <Data name="disaster_sub_type">
          <displayName>災情類別細項</displayName>
          <value>路樹傾斜</value>
        </Data>
        <Data name="county">
          <displayName>縣市</displayName>
          <value>苗栗縣</value>
        </Data>
        <Data name="town">
          <displayName>鄉鎮市區</displayName>
          <value>三義鄉</value>
        </Data>
        <Data name="location">
          <displayName>發生地點</displayName>
          <value>苗栗縣三義鄉廣盛村</value>
        </Data>
        <Data name="case_description">
          <displayName>災情描述</displayName>
          <value>路樹傾斜</value>
        </Data>
        <Data name="case_type">
          <displayName>通報類別</displayName>
          <value>LINE災情通報</value>
        </Data>
        <Data name="person_id">
          <displayName>上傳單位</displayName>
          <value>吳尚左</value>
        </Data>
        <Data name="status">
          <displayName>處理狀態</displayName>
          <value>未指派</value>
        </Data>
        <Data name="is_traffic">
          <displayName>交通障礙</displayName>
          <value>否</value>
        </Data>
        <Data name="is_serious">
          <displayName>重大災情</displayName>
          <value>否</value>
        </Data>
        <Data name="injured_no">
          <displayName>人員受傷</displayName>
          <value>0</value>
        </Data>
        <Data name="death_no">
          <displayName>人員死亡</displayName>
          <value>0</value>
        </Data>
        <Data name="trapped_no">
          <displayName>人員受困</displayName>
          <value>0</value>
        </Data>
        <Data name="missing_no">
          <displayName>人員失蹤</displayName>
          <value>0</value>
        </Data>
        <Data name="shelter_no">
          <displayName>人員收容</displayName>
          <value>0</value>
        </Data>
      </ExtendedData>
      <Point>
        <coordinates>120.767126,24.408992,0</coordinates>
      </Point>
    </Placemark>
    <Placemark>
      <name>路樹災情</name>
      <visibility>1</visibility>
      <TimeStamp>
        <when>2026/9/24 上午 10:27:09</when>
      </TimeStamp>
      <description><![CDATA[
    <b>案件編號：</b>162026064882400<br/><b>災情類別：</b>路樹災情（路樹傾斜）<br/><b>發生時間：</b>2026/9/24 上午 10:27:09<br/><b>行政區：</b>苗栗縣 造橋鄉<br/><b>發生地點：</b>苗栗縣造橋鄉龍昇村4鄰九車籠45之5號<br/><b>災情描述：</b>測試<br/><b>通報類別：</b>LINE災情通報<br/><b>上傳單位：</b>鄧嘉瑩<br/><b>處理狀態：</b>未指派<br/><b>交通障礙：</b>否<br/><b>重大災情：</b>否<br/><b>人員受傷：</b>0，<b>死亡：</b>0，<b>受困：</b>0，<b>失蹤：</b>0，<b>收容：</b>0
  ]]></description>
      <styleUrl>#style_a95dffc8bbdec0d851384b63d379c116</styleUrl>
      <ExtendedData>
        <Data name="case_id">
          <displayName>案件編號</displayName>
          <value>162026064882400</value>
        </Data>
        <Data name="case_dt">
          <displayName>發生時間</displayName>
          <value>2026/9/24 上午 10:27:09</value>
        </Data>
        <Data name="disaster_type">
          <displayName>災情類別</displayName>
          <value>路樹災情</value>
        </Data>
        <Data name="disaster_sub_type">
          <displayName>災情類別細項</displayName>
          <value>路樹傾斜</value>
        </Data>
        <Data name="county">
          <displayName>縣市</displayName>
          <value>苗栗縣</value>
        </Data>
        <Data name="town">
          <displayName>鄉鎮市區</displayName>
          <value>造橋鄉</value>
        </Data>
        <Data name="location">
          <displayName>發生地點</displayName>
          <value>苗栗縣造橋鄉龍昇村4鄰九車籠45之5號</value>
        </Data>
        <Data name="case_description">
          <displayName>災情描述</displayName>
          <value>測試</value>
        </Data>
        <Data name="case_type">
          <displayName>通報類別</displayName>
          <value>LINE災情通報</value>
        </Data>
        <Data name="person_id">
          <displayName>上傳單位</displayName>
          <value>鄧嘉瑩</value>
        </Data>
        <Data name="status">
          <displayName>處理狀態</displayName>
          <value>未指派</value>
        </Data>
        <Data name="is_traffic">
          <displayName>交通障礙</displayName>
          <value>否</value>
        </Data>
        <Data name="is_serious">
          <displayName>重大災情</displayName>
          <value>否</value>
        </Data>
        <Data name="injured_no">
          <displayName>人員受傷</displayName>
          <value>0</value>
        </Data>
        <Data name="death_no">
          <displayName>人員死亡</displayName>
          <value>0</value>
        </Data>
        <Data name="trapped_no">
          <displayName>人員受困</displayName>
          <value>0</value>
        </Data>
        <Data name="missing_no">
          <displayName>人員失蹤</displayName>
          <value>0</value>
        </Data>
        <Data name="shelter_no">
          <displayName>人員收容</displayName>
          <value>0</value>
        </Data>
      </ExtendedData>
      <Point>
        <coordinates>120.832423,24.645306,0</coordinates>
      </Point>
    </Placemark>
    <Placemark>
      <name>其他災情</name>
      <visibility>1</visibility>
      <TimeStamp>
        <when>2026/9/24 上午 09:22:41</when>
      </TimeStamp>
      <description><![CDATA[
    <b>案件編號：</b>162026064882126<br/><b>災情類別：</b>其他災情（其他）<br/><b>發生時間：</b>2026/9/24 上午 09:22:41<br/><b>行政區：</b>苗栗縣 通霄鎮<br/><b>發生地點：</b>苗栗縣通霄鎮通灣里中山路55號<br/><b>災情描述：</b>演練<br/><b>通報類別：</b>LINE災情通報<br/><b>上傳單位：</b>許迪翔<br/><b>處理狀態：</b>未指派<br/><b>交通障礙：</b>否<br/><b>重大災情：</b>否<br/><b>人員受傷：</b>0，<b>死亡：</b>0，<b>受困：</b>0，<b>失蹤：</b>0，<b>收容：</b>0
  ]]></description>
      <styleUrl>#style_0fb7e241a82e93d42b45d4611e7af211</styleUrl>
      <ExtendedData>
        <Data name="case_id">
          <displayName>案件編號</displayName>
          <value>162026064882126</value>
        </Data>
        <Data name="case_dt">
          <displayName>發生時間</displayName>
          <value>2026/9/24 上午 09:22:41</value>
        </Data>
        <Data name="disaster_type">
          <displayName>災情類別</displayName>
          <value>其他災情</value>
        </Data>
        <Data name="disaster_sub_type">
          <displayName>災情類別細項</displayName>
          <value>其他</value>
        </Data>
        <Data name="county">
          <displayName>縣市</displayName>
          <value>苗栗縣</value>
        </Data>
        <Data name="town">
          <displayName>鄉鎮市區</displayName>
          <value>通霄鎮</value>
        </Data>
        <Data name="location">
          <displayName>發生地點</displayName>
          <value>苗栗縣通霄鎮通灣里中山路55號</value>
        </Data>
        <Data name="case_description">
          <displayName>災情描述</displayName>
          <value>演練</value>
        </Data>
        <Data name="case_type">
          <displayName>通報類別</displayName>
          <value>LINE災情通報</value>
        </Data>
        <Data name="person_id">
          <displayName>上傳單位</displayName>
          <value>許迪翔</value>
        </Data>
        <Data name="status">
          <displayName>處理狀態</displayName>
          <value>未指派</value>
        </Data>
        <Data name="is_traffic">
          <displayName>交通障礙</displayName>
          <value>否</value>
        </Data>
        <Data name="is_serious">
          <displayName>重大災情</displayName>
          <value>否</value>
        </Data>
        <Data name="injured_no">
          <displayName>人員受傷</displayName>
          <value>0</value>
        </Data>
        <Data name="death_no">
          <displayName>人員死亡</displayName>
          <value>0</value>
        </Data>
        <Data name="trapped_no">
          <displayName>人員受困</displayName>
          <value>0</value>
        </Data>
        <Data name="missing_no">
          <displayName>人員失蹤</displayName>
          <value>0</value>
        </Data>
        <Data name="shelter_no">
          <displayName>人員收容</displayName>
          <value>0</value>
        </Data>
      </ExtendedData>
      <Point>
        <coordinates>120.681254,24.494007,0</coordinates>
      </Point>
    </Placemark>
    <Placemark>
      <name>路樹災情</name>
      <visibility>1</visibility>
      <TimeStamp>
        <when>2026/9/24 上午 09:14:23</when>
      </TimeStamp>
      <description><![CDATA[
    <b>案件編號：</b>162026064882074<br/><b>災情類別：</b>路樹災情（路樹傾斜）<br/><b>發生時間：</b>2026/9/24 上午 09:14:23<br/><b>行政區：</b>苗栗縣 獅潭鄉<br/><b>發生地點：</b>苗栗縣獅潭鄉和興村4鄰新興22號<br/><b>災情描述：</b>路樹傾斜<br/><b>通報類別：</b>LINE災情通報<br/><b>上傳單位：</b>李方夷<br/><b>處理狀態：</b>未指派<br/><b>交通障礙：</b>否<br/><b>重大災情：</b>否<br/><b>人員受傷：</b>0，<b>死亡：</b>0，<b>受困：</b>0，<b>失蹤：</b>0，<b>收容：</b>0
  ]]></description>
      <styleUrl>#style_a95dffc8bbdec0d851384b63d379c116</styleUrl>
      <ExtendedData>
        <Data name="case_id">
          <displayName>案件編號</displayName>
          <value>162026064882074</value>
        </Data>
        <Data name="case_dt">
          <displayName>發生時間</displayName>
          <value>2026/9/24 上午 09:14:23</value>
        </Data>
        <Data name="disaster_type">
          <displayName>災情類別</displayName>
          <value>路樹災情</value>
        </Data>
        <Data name="disaster_sub_type">
          <displayName>災情類別細項</displayName>
          <value>路樹傾斜</value>
        </Data>
        <Data name="county">
          <displayName>縣市</displayName>
          <value>苗栗縣</value>
        </Data>
        <Data name="town">
          <displayName>鄉鎮市區</displayName>
          <value>獅潭鄉</value>
        </Data>
        <Data name="location">
          <displayName>發生地點</displayName>
          <value>苗栗縣獅潭鄉和興村4鄰新興22號</value>
        </Data>
        <Data name="case_description">
          <displayName>災情描述</displayName>
          <value>路樹傾斜</value>
        </Data>
        <Data name="case_type">
          <displayName>通報類別</displayName>
          <value>LINE災情通報</value>
        </Data>
        <Data name="person_id">
          <displayName>上傳單位</displayName>
          <value>李方夷</value>
        </Data>
        <Data name="status">
          <displayName>處理狀態</displayName>
          <value>未指派</value>
        </Data>
        <Data name="is_traffic">
          <displayName>交通障礙</displayName>
          <value>否</value>
        </Data>
        <Data name="is_serious">
          <displayName>重大災情</displayName>
          <value>否</value>
        </Data>
        <Data name="injured_no">
          <displayName>人員受傷</displayName>
          <value>0</value>
        </Data>
        <Data name="death_no">
          <displayName>人員死亡</displayName>
          <value>0</value>
        </Data>
        <Data name="trapped_no">
          <displayName>人員受困</displayName>
          <value>0</value>
        </Data>
        <Data name="missing_no">
          <displayName>人員失蹤</displayName>
          <value>0</value>
        </Data>
        <Data name="shelter_no">
          <displayName>人員收容</displayName>
          <value>0</value>
        </Data>
      </ExtendedData>
      <Point>
        <coordinates>120.919049,24.528264,0</coordinates>
      </Point>
    </Placemark>
    <Placemark>
      <name>其他災情</name>
      <visibility>1</visibility>
      <TimeStamp>
        <when>2026/9/24 上午 09:14:22</when>
      </TimeStamp>
      <description><![CDATA[
    <b>案件編號：</b>162026064882078<br/><b>災情類別：</b>其他災情（其他）<br/><b>發生時間：</b>2026/9/24 上午 09:14:22<br/><b>行政區：</b>苗栗縣 通霄鎮<br/><b>發生地點：</b>苗栗縣通霄鎮通灣里<br/><b>災情描述：</b>演練<br/><b>通報類別：</b>LINE災情通報<br/><b>上傳單位：</b>許迪翔<br/><b>處理狀態：</b>未指派<br/><b>交通障礙：</b>否<br/><b>重大災情：</b>否<br/><b>人員受傷：</b>0，<b>死亡：</b>0，<b>受困：</b>0，<b>失蹤：</b>0，<b>收容：</b>0
  ]]></description>
      <styleUrl>#style_0fb7e241a82e93d42b45d4611e7af211</styleUrl>
      <ExtendedData>
        <Data name="case_id">
          <displayName>案件編號</displayName>
          <value>162026064882078</value>
        </Data>
        <Data name="case_dt">
          <displayName>發生時間</displayName>
          <value>2026/9/24 上午 09:14:22</value>
        </Data>
        <Data name="disaster_type">
          <displayName>災情類別</displayName>
          <value>其他災情</value>
        </Data>
        <Data name="disaster_sub_type">
          <displayName>災情類別細項</displayName>
          <value>其他</value>
        </Data>
        <Data name="county">
          <displayName>縣市</displayName>
          <value>苗栗縣</value>
        </Data>
        <Data name="town">
          <displayName>鄉鎮市區</displayName>
          <value>通霄鎮</value>
        </Data>
        <Data name="location">
          <displayName>發生地點</displayName>
          <value>苗栗縣通霄鎮通灣里</value>
        </Data>
        <Data name="case_description">
          <displayName>災情描述</displayName>
          <value>演練</value>
        </Data>
        <Data name="case_type">
          <displayName>通報類別</displayName>
          <value>LINE災情通報</value>
        </Data>
        <Data name="person_id">
          <displayName>上傳單位</displayName>
          <value>許迪翔</value>
        </Data>
        <Data name="status">
          <displayName>處理狀態</displayName>
          <value>未指派</value>
        </Data>
        <Data name="is_traffic">
          <displayName>交通障礙</displayName>
          <value>否</value>
        </Data>
        <Data name="is_serious">
          <displayName>重大災情</displayName>
          <value>否</value>
        </Data>
        <Data name="injured_no">
          <displayName>人員受傷</displayName>
          <value>0</value>
        </Data>
        <Data name="death_no">
          <displayName>人員死亡</displayName>
          <value>0</value>
        </Data>
        <Data name="trapped_no">
          <displayName>人員受困</displayName>
          <value>0</value>
        </Data>
        <Data name="missing_no">
          <displayName>人員失蹤</displayName>
          <value>0</value>
        </Data>
        <Data name="shelter_no">
          <displayName>人員收容</displayName>
          <value>0</value>
        </Data>
      </ExtendedData>
      <Point>
        <coordinates>120.680822,24.494173,0</coordinates>
      </Point>
    </Placemark>
  </Document>
</kml>
